CTC2_L_00232016-03
1 10062U 22346A   26075.70043981  .00000000  00000+0  00000-0 0  9997
2 10062  85.0000 180.0000 0000000   0.0000   0.0000 14.24551792    14
CTC2_L_00232016-04
1 10063U 22866TH  26075.70043981  .00000000  00000+0  00000-0 0  9995
2 10063  85.0000 180.0000 0000000   0.0000  90.0000 14.24551792    14
CTC2_L_00232017-01
1 10064U 23644VD  26075.70043981  .00000000  00000+0  00000-0 0  9991
2 10064  85.0000 192.0000 0000000   0.0000 192.0000 14.24551792    11
CTC2_L_00232017-02
1 10065U 25427SR  26075.70043981  .00000000  00000+0  00000-0 0  9993
2 10065  85.0000 192.0000 0000000   0.0000 282.0000 14.24551792    12
CTC2_L_00232017-03
1 10066U 24843GH  26075.70043981  .00000000  00000+0  00000-0 0  9995
2 10066  85.0000 192.0000 0000000   0.0000  12.0000 14.24551792    14
CTC2_L_00232017-04
1 10067U 23172AI  26075.70043981  .00000000  00000+0  00000-0 0  9990
2 10067  85.0000 192.0000 0000000   0.0000 102.0000 14.24551792    15
CTC2_L_00232018-01
1 10068U 26428RN  26075.70043981  .00000000  00000+0  00000-0 0  9998
2 10068  85.0000 204.0000 0000000   0.0000 204.0000 14.24551792    13
CTC2_L_00232018-02
1 10069U 26890LF  26075.70043981  .00000000  00000+0  00000-0 0  9992
2 10069  85.0000 204.0000 0000000   0.0000 294.0000 14.24551792    13
CTC2_L_00232018-03
1 10070U 23237CV  26075.70043981  .00000000  00000+0  00000-0 0  9996
2 10070  85.0000 204.0000 0000000   0.0000  24.0000 14.24551792    16
CTC2_L_00232018-04
1 10071U 26147KK  26075.70043981  .00000000  00000+0  00000-0 0  9990
2 10071  85.0000 204.0000 0000000   0.0000 114.0000 14.24551792    17
CTC2_L_00232019-01
1 10072U 23646NY  26075.70043981  .00000000  00000+0  00000-0 0  9992
2 10072  85.0000 216.0000 0000000   0.0000 216.0000 14.24551792    14
CTC2_L_00232019-02
1 10073U 23901TW  26075.70043981  .00000000  00000+0  00000-0 0  9997
2 10073  85.0000 216.0000 0000000   0.0000 306.0000 14.24551792    15
CTC2_L_00232019-03
1 10074U 22227RK  26075.70043981  .00000000  00000+0  00000-0 0  9998
2 10074  85.0000 216.0000 0000000   0.0000  36.0000 14.24551792    16
CTC2_L_00232019-04
1 10075U 22507JZ  26075.70043981  .00000000  00000+0  00000-0 0  9990
2 10075  85.0000 216.0000 0000000   0.0000 126.0000 14.24551792    17
CTC2_L_00232020-01
1 10076U 23754FY  26075.70043981  .00000000  00000+0  00000-0 0  9996
2 10076  85.0000 228.0000 0000000   0.0000 228.0000 14.24551792    14
CTC2_L_00232020-02
1 10077U 23724OP  26075.70043981  .00000000  00000+0  00000-0 0  9994
2 10077  85.0000 228.0000 0000000   0.0000 318.0000 14.24551792    15
CTC2_L_00232020-03
1 10078U 25002DV  26075.70043981  .00000000  00000+0  00000-0 0  9996
2 10078  85.0000 228.0000 0000000   0.0000  48.0000 14.24551792    16
CTC2_L_00232020-04
1 10079U 25262AF  26075.70043981  .00000000  00000+0  00000-0 0  9995
2 10079  85.0000 228.0000 0000000   0.0000 138.0000 14.24551792    17
CTC2_L_00232021-01
1 10080U 23116FK  26075.70043981  .00000000  00000+0  00000-0 0  9993
2 10080  85.0000 240.0000 0000000   0.0000 240.0000 14.24551792    17
CTC2_L_00232021-02
1 10081U 26750LM  26075.70043981  .00000000  00000+0  00000-0 0  9991
2 10081  85.0000 240.0000 0000000   0.0000 330.0000 14.24551792    18
CTC2_L_00232021-03
1 10082U 22891II  26075.70043981  .00000000  00000+0  00000-0 0  9994
2 10082  85.0000 240.0000 0000000   0.0000  60.0000 14.24551792    19
CTC2_L_00232021-04
1 10083U 26266HZ  26075.70043981  .00000000  00000+0  00000-0 0  9995
2 10083  85.0000 240.0000 0000000   0.0000 150.0000 14.24551792    10
CTC2_L_00232022-01
1 10084U 24472OV  26075.70043981  .00000000  00000+0  00000-0 0  9993
2 10084  85.0000 252.0000 0000000   0.0000 252.0000 14.24551792    17
CTC2_L_00232022-02
1 10085U 26135SS  26075.70043981  .00000000  00000+0  00000-0 0  9992
2 10085  85.0000 252.0000 0000000   0.0000 342.0000 14.24551792    18
CTC2_L_00232022-03
1 10086U 26333JB  26075.70043981  .00000000  00000+0  00000-0 0  9993
2 10086  85.0000 252.0000 0000000   0.0000  72.0000 14.24551792    19
CTC2_L_00232022-04
1 10087U 26359IN  26075.70043981  .00000000  00000+0  00000-0 0  9992
2 10087  85.0000 252.0000 0000000   0.0000 162.0000 14.24551792    10
CTC2_L_00232023-01
1 10088U 23187CH  26075.70043981  .00000000  00000+0  00000-0 0  9999
2 10088  85.0000 264.0000 0000000   0.0000 264.0000 14.24551792    17
CTC2_L_00232023-02
1 10089U 25316QQ  26075.70043981  .00000000  00000+0  00000-0 0  9996
2 10089  85.0000 264.0000 0000000   0.0000 354.0000 14.24551792    18
CTC2_L_00232023-03
1 10090U 26062WD  26075.70043981  .00000000  00000+0  00000-0 0  9997
2 10090  85.0000 264.0000 0000000   0.0000  84.0000 14.24551792    10
CTC2_L_00232023-04
1 10091U 26895VP  26075.70043981  .00000000  00000+0  00000-0 0  9992
2 10091  85.0000 264.0000 0000000   0.0000 174.0000 14.24551792    11
CTC2_L_00232024-01
1 10092U 26704SL  26075.70043981  .00000000  00000+0  00000-0 0  9992
2 10092  85.0000 276.0000 0000000   0.0000 276.0000 14.24551792    18
CTC2_L_00232024-02
1 10093U 25635QU  26075.70043981  .00000000  00000+0  00000-0 0  9995
2 10093  85.0000 276.0000 0000000   0.0000   6.0000 14.24551792    10
CTC2_L_00232024-03
1 10094U 25658PE  26075.70043981  .00000000  00000+0  00000-0 0  9991
2 10094  85.0000 276.0000 0000000   0.0000  96.0000 14.24551792    10
CTC2_L_00232024-04
1 10095U 22811GN  26075.70043981  .00000000  00000+0  00000-0 0  9990
2 10095  85.0000 276.0000 0000000   0.0000 186.0000 14.24551792    11
CTC2_L_00232025-01
1 10096U 23019QU  26075.70043981  .00000000  00000+0  00000-0 0  9992
2 10096  85.0000 288.0000 0000000   0.0000 288.0000 14.24551792    18
CTC2_L_00232025-02
1 10097U 26859UT  26075.70043981  .00000000  00000+0  00000-0 0  9998
2 10097  85.0000 288.0000 0000000   0.0000  18.0000 14.24551792    10
CTC2_L_00232025-03
1 10098U 22908LY  26075.70043981  .00000000  00000+0  00000-0 0  9990
2 10098  85.0000 288.0000 0000000   0.0000 108.0000 14.24551792    11
CTC2_L_00232025-04
1 10099U 26194DA  26075.70043981  .00000000  00000+0  00000-0 0  9992
2 10099  85.0000 288.0000 0000000   0.0000 198.0000 14.24551792    11
CTC2_L_00232026-01
1 10100U 25882FI  26075.70043981  .00000000  00000+0  00000-0 0  9998
2 10100  85.0000 300.0000 0000000   0.0000 300.0000 14.24551792    14
CTC2_L_00232026-02
1 10101U 23164GD  26075.70043981  .00000000  00000+0  00000-0 0  9990
2 10101  85.0000 300.0000 0000000   0.0000  30.0000 14.24551792    15
CTC2_L_00232026-03
1 10102U 23318SD  26075.70043981  .00000000  00000+0  00000-0 0  9992
2 10102  85.0000 300.0000 0000000   0.0000 120.0000 14.24551792    16
CTC2_L_00232026-04
1 10103U 22752ZZ  26075.70043981  .00000000  00000+0  00000-0 0  9994
2 10103  85.0000 300.0000 0000000   0.0000 210.0000 14.24551792    17
CTC2_L_00232027-01
1 10104U 24233DE  26075.70043981  .00000000  00000+0  00000-0 0  9991
2 10104  85.0000 312.0000 0000000   0.0000 312.0000 14.24551792    14
CTC2_L_00232027-02
1 10105U 22871CW  26075.70043981  .00000000  00000+0  00000-0 0  9998
2 10105  85.0000 312.0000 0000000   0.0000  42.0000 14.24551792    15
CTC2_L_00232027-03
1 10106U 23943ER  26075.70043981  .00000000  00000+0  00000-0 0  9990
2 10106  85.0000 312.0000 0000000   0.0000 132.0000 14.24551792    16
CTC2_L_00232027-04
1 10107U 24961LB  26075.70043981  .00000000  00000+0  00000-0 0  9992
2 10107  85.0000 312.0000 0000000   0.0000 222.0000 14.24551792    17
CTC2_L_00232028-01
1 10108U 25042FI  26075.70043981  .00000000  00000+0  00000-0 0  9994
2 10108  85.0000 324.0000 0000000   0.0000 324.0000 14.24551792    14
CTC2_L_00232028-02
1 10109U 24785H   26075.70043981  .00000000  00000+0  00000-0 0  9998
2 10109  85.0000 324.0000 0000000   0.0000  54.0000 14.24551792    15
CTC2_L_00232028-03
1 10110U 22196EA  26075.70043981  .00000000  00000+0  00000-0 0  9994
2 10110  85.0000 324.0000 0000000   0.0000 144.0000 14.24551792    17
CTC2_L_00232028-04
1 10111U 23405FZ  26075.70043981  .00000000  00000+0  00000-0 0  9999
2 10111  85.0000 324.0000 0000000   0.0000 234.0000 14.24551792    18
CTC2_L_00232029-01
1 10112U 25530ET  26075.70043981  .00000000  00000+0  00000-0 0  9991
2 10112  85.0000 336.0000 0000000   0.0000 336.0000 14.24551792    15
CTC2_L_00232029-02
1 10113U 25442VG  26075.70043981  .00000000  00000+0  00000-0 0  9994
2 10113  85.0000 336.0000 0000000   0.0000  66.0000 14.24551792    16
CTC2_L_00232029-03
1 10114U 23040UL  26075.70043981  .00000000  00000+0  00000-0 0  9997
2 10114  85.0000 336.0000 0000000   0.0000 156.0000 14.24551792    17
CTC2_L_00232029-04
1 10115U 24306LV  26075.70043981  .00000000  00000+0  00000-0 0  9994
2 10115  85.0000 336.0000 0000000   0.0000 246.0000 14.24551792    18
CTC2_L_00232030-01
1 10116U 26094WA  26075.70043981  .00000000  00000+0  00000-0 0  9991
2 10116  85.0000 348.0000 0000000   0.0000 348.0000 14.24551792    15
CTC2_L_00232030-02
1 10117U 26084QH  26075.70043981  .00000000  00000+0  00000-0 0  9991
2 10117  85.0000 348.0000 0000000   0.0000  78.0000 14.24551792    16
CTC2_L_00232030-03
1 10118U 25010IR  26075.70043981  .00000000  00000+0  00000-0 0  9990
2 10118  85.0000 348.0000 0000000   0.0000 168.0000 14.24551792    17
CTC2_L_00232030-04
1 10119U 26460SN  26075.70043981  .00000000  00000+0  00000-0 0  9991
2 10119  85.0000 348.0000 0000000   0.0000 258.0000 14.24551792    18
